STARLINK-6146           
1 57124U 23090Z   25259.36718504  .00000100  00000+0  22457-4 0  9994
2 57124  43.0024 141.6196 0000985 270.3897  89.6832 15.02534689124196
STARLINK-6100           
1 57125U 23090AA  25259.34646831 -.00000002  00000+0  14915-4 0  9998
2 57125  43.0026 129.3045 0001152 271.0868  88.9843 15.02535034124142
STARLINK-6167           
1 57126U 23090AB  25259.36607457  .00000510  00000+0  52849-4 0  9993
2 57126  43.0029 141.6111 0001126 272.3864  87.6850 15.02533595124197
STARLINK-6165           
1 57127U 23090AC  25259.35607990  .00000490  00000+0  51360-4 0  9999
2 57127  43.0028 141.5320 0001143 253.8790 106.1927 15.02539816124003
STARLINK-6163           
1 57128U 23090AD  25259.03035385 -.00000507  00000+0 -22501-4 0  9994
2 57128  43.0017 143.3908 0000920 275.7308  84.3430 15.02534874123952
STARLINK-6170           
1 57129U 23090AE  25259.36089273  .00001439  00000+0  12154-3 0  9991
2 57129  43.0034 129.4151 0001267 269.2292  90.8405 15.02544556124146
STARLINK-6172           
1 57130U 23090AF  25259.35719380 -.00000361  00000+0 -11617-4 0  9990
2 57130  43.0031 141.5422 0001173 274.9930  85.0779 15.02537762124005
STARLINK-6162           
1 57131U 23090AG  25259.35645398  .00000633  00000+0  61951-4 0  9994
2 57131  43.0033 129.3803 0001189 249.3368 110.7347 15.02538970124147
STARLINK-6128           
1 57132U 23090AH  25259.01814221  .00000649  00000+0  63099-4 0  9993
2 57132  43.0029 143.2996 0000923 257.5092 102.5648 15.02541059123954
STARLINK-6143           
1 57133U 23090AJ  25259.34313881 -.00003193  00000+0 -22141-3 0  9997
2 57133  43.0025 129.2799 0001364 265.6362  94.4324 15.02536694124147
STARLINK-6133           
1 57134U 23090AK  25259.35756729  .00000219  00000+0  31315-4 0  9999
2 57134  43.0064 129.3882 0001055 274.8692  85.2030 15.02536269124140
STARLINK-6127           
1 57135U 23090AL  25259.33314794 -.00000385  00000+0 -13447-4 0  9992
2 57135  43.0043 129.2035 0001126 274.8592  85.2122 15.02533625124140
STARLINK-6112           
1 57136U 23090AM  25259.35423657 -.00000278  00000+0 -55284-5 0  9991
2 57136  43.0027 129.3630 0001169 269.9432  90.1276 15.02535802124166
STARLINK-5347           
1 57137U 23090AN  25259.34091456  .00000704  00000+0  67189-4 0  9997
2 57137  43.0034 129.2604 0001238 268.2541  91.8160 15.02538473124140
STARLINK-5336           
1 57138U 23090AP  25258.95425978  .00000504  00000+0  52386-4 0  9995
2 57138  43.0035 131.5224 0000909 244.0562 116.0187 15.02538154124083
STARLINK-5355           
1 57139U 23090AQ  25259.33647444 -.00003489  00000+0 -24321-3 0  9997
2 57139  43.0008 129.2282 0000989 273.3946  86.6783 15.02552837124146
STARLINK-5357           
1 57141U 23090AS  25259.33092858  .00000141  00000+0  25516-4 0  9991
2 57141  43.0045 129.1845 0001013 269.0822  90.9904 15.02534864124141
STARLINK-5361           
1 57142U 23090AT  25258.92762540 -.00001399  00000+0 -88509-4 0  9997
2 57142  43.0026 131.3155 0001128 271.8895  88.1818 15.02540264124085
STARLINK-5358           
1 57143U 23090AU  25259.32315799 -.00000238  00000+0 -25380-5 0  9993
2 57143  43.0034 129.1280 0002283 262.4290  97.6293 15.02518954124147
STARLINK-5150           
1 57144U 23090AV  25259.33425386  .00000302  00000+0  37422-4 0  9998
2 57144  43.0033 129.2097 0001308 266.0302  94.0391 15.02539369124148
STARLINK-5768           
1 57145U 23090AW  25259.04836395  .00000531  00000+0  54356-4 0  9992
2 57145  43.0033 130.5043 0001265 268.7041  91.3656 15.02538483124102
STARLINK-5791           
1 57146U 23090AX  25259.05502506  .00000051  00000+0  18846-4 0  9999
2 57146  43.0035 130.5532 0001343 263.5688  96.5002 15.02538238124105
STARLINK-5765           
1 57147U 23090AY  25259.04392598  .00000364  00000+0  41992-4 0  9992
2 57147  43.0040 130.4691 0001114 265.6017  94.4698 15.02537231124292
STARLINK-5788           
1 57148U 23090AZ  25259.03726667  .00000730  00000+0  69106-4 0  9994
2 57148  43.0025 130.4205 0001317 262.6760  97.3933 15.02537146124103
STARLINK-5778           
1 57149U 23090BA  25259.25719028  .00000919  00000+0  83114-4 0  9996
2 57149  43.0056 103.4486 0001174 262.0452  98.0257 15.02537194124629
STARLINK-5780           
1 57150U 23090BB  25259.05169937  .00000035  00000+0  17663-4 0  9999
2 57150  43.0028 130.5296 0001122 266.4689  93.6025 15.02534776124293
STARLINK-5776           
1 57151U 23090BC  25259.05058584 -.00000104  00000+0  73698-5 0  9994
2 57151  43.0038 130.5185 0001143 270.6511  89.4200 15.02539238124292
STARLINK-6164           
1 57152U 23090BD  25258.98743776  .00000177  00000+0  28168-4 0  9990
2 57152  43.0013 130.9089 0000869 269.7772  90.2971 15.02536938124283
STARLINK-5879           
1 57153U 23090BE  25259.01100119  .00001010  00000+0  89804-4 0  9995
2 57153  43.0034 118.0668 0001418 265.0475  95.0205 15.02553254123931
STARLINK-6106           
1 57154U 23090BF  25259.04503759 -.00001677  00000+0 -10913-3 0  9991
2 57154  43.0027 130.4782 0001160 267.8805  92.1905 15.02531531124299
STARLINK-6108           
1 57155U 23090BG  25259.36299037  .00001718  00000+0  14220-3 0  9997
2 57155  43.0036 128.5652 0001201 266.7198  93.3507 15.02543669124345
STARLINK-6137           
1 57156U 23090BH  25259.36632315  .00001447  00000+0  12211-3 0  9995
2 57156  43.0038 128.5888 0001239 266.9985  93.0716 15.02542106124340
METEOR-M2 3             
1 57166U 23091A   25259.63484731 -.00000015  00000+0  12623-4 0  9993
2 57166  98.6515 314.6315 0003000 235.6472 124.4423 14.24010274115581
STRATOSAT-TK 1 (RS52S)  
1 57167U 23091B   25259.54981060  .00062422  00000+0  11527-2 0  9990
2 57167  97.5417 326.7507 0005478 302.1042  57.9677 15.48866238123285
2023-091C               
1 57168U 23091C   25259.55511173  .00009031  00000+0  42104-3 0  9999
2 57168  97.5467 316.1831 0012415 353.0018   7.1041 15.20040706122590
2023-091D               
1 57169U 23091D   25259.55428484  .00007941  00000+0  38706-3 0  9993
2 57169  97.5526 315.9446 0010559 345.3931  14.6997 15.18559256122552
2023-091E               
1 57170U 23091E   25259.55444157  .00008261  00000+0  40262-3 0  9996
2 57170  97.5531 316.0027 0009146 337.0820  23.0005 15.18559939122554
2023-091F               
1 57171U 23091F   25259.55411036  .00008174  00000+0  39818-3 0  9995
2 57171  97.5528 315.9668 0011689 355.8554   4.2581 15.18557007122551
UMKA 1 (RS40S)          
1 57172U 23091G   25259.55846237  .00006743  00000+0  34933-3 0  9994
2 57172  97.5487 314.4397 0013654 358.7177   1.4018 15.16441959122477
2023-091H               
1 57173U 23091H   25259.59205983  .00010160  00000+0  45969-3 0  9995
2 57173  97.5479 316.3624 0011175   2.7370 357.3924 15.21053075122608
2023-091J               
1 57174U 23091J   25259.60290682  .00003905  00000+0  23591-3 0  9994
2 57174  97.5498 311.4072 0014309  18.1669 342.0069 15.11189784122277
CUBEBEL 2 (EU11S)       
1 57175U 23091K   25259.57279888  .00011071  00000+0  49974-3 0  9992
2 57175  97.5484 316.2474 0011274   5.0775 355.0573 15.21107088122590
SITRO-AIS 5 (KATYS)     
1 57176U 23091L   25259.59500577  .00010661  00000+0  47514-3 0  9999
2 57176  97.5487 316.7623 0012756 351.2342   8.8668 15.21537312122626
ZORKIY-2M 1             
1 57177U 23091M   25259.58222191  .00005982  00000+0  31358-3 0  9991
2 57177  97.5525 314.6521 0014229 354.3230   5.7839 15.16068249122472
CUBESX-HSE 3 (RS42S)    
1 57178U 23091N   25259.56114758  .00011816  00000+0  50981-3 0  9995
2 57178  97.5517 317.7115 0012003 343.4091  16.6751 15.22626269122663
2023-091P               
1 57179U 23091P   25259.60291293  .00004241  00000+0  24067-3 0  9991
2 57179  97.5533 313.1707 0015550 357.9951   2.1216 15.13394501122368
MONITOR-3 (RS58S)       
1 57180U 23091Q   25259.57129063  .00010635  00000+0  48541-3 0  9991
2 57180  97.5511 316.7135 0012852 346.5691  13.5200 15.20720364122601
2023-091R               
1 57181U 23091R   25259.55981270  .00004457  00000+0  26308-3 0  9998
2 57181  97.5502 311.9203 0015989   7.7409 352.4065 15.11936994122301
MONITOR-4 (RS57S)       
1 57182U 23091S   25259.56434216  .00010176  00000+0  46386-3 0  9996
2 57182  97.5506 316.6654 0012868 347.3892  12.7019 15.20776232122605
2023-091T               
1 57183U 23091T   25259.60456931  .00004993  00000+0  26737-3 0  9998
2 57183  97.5522 314.8891 0011445 348.0622  12.0338 15.15427689122482
MONITOR-2 (RS39S)       
1 57184U 23091U   25259.56184305  .00005428  00000+0  29142-3 0  9994
2 57184  97.5514 314.5934 0011550 350.3698   9.7311 15.15294684122464
2023-091V               
1 57185U 23091V   25259.57029272  .00016241  00000+0  61198-3 0  9999
2 57185  97.5485 320.3098 0007692 335.3379  24.7491 15.27135679122848
CSTP 1.2 (STC 1.2)      
1 57186U 23091W   25259.57510741  .00008943  00000+0  38173-3 0  9993
2 57186  97.5568 318.6319 0020012 340.0694  19.9758 15.22953312122727
SVYATOBOR 1 (RS60S)     
1 57187U 23091X   25259.55397437  .00008675  00000+0  40065-3 0  9992
2 57187  97.5516 317.3748 0009794 339.5117  20.5724 15.20403914122648
HORS 1                  
1 57188U 23091Y   25259.55033584  .00009005  00000+0  41547-3 0  9997
2 57188  97.5498 317.1822 0009279 340.2100  19.8773 15.20431987122644
VIZARD-METEO (RS38S)    
1 57189U 23091Z   25259.57912810  .00013916  00000+0  54841-3 0  9995
2 57189  97.5503 320.0112 0007836 328.4874  31.5894 15.25680527122826
NANOZOND 1 (RS49S)      
1 57190U 23091AA  25259.60235905  .00036998  00000+0  88944-3 0  9990
2 57190  97.5451 325.9639 0004383 303.4542  56.6285 15.41221850123233
POLYTECH-UNIVERSE 3 (R*)
1 57191U 23091AB  25259.55468053  .00005715  00000+0  30501-3 0  9996
2 57191  97.5485 314.1116 0016637   5.4885 354.6526 15.15423496122458
SITRO-AIS 6 (CHIRKIN)   
1 57192U 23091AC  25259.59068842  .00006798  00000+0  30709-3 0  9995
2 57192  97.5487 316.7466 0012594 353.0589   7.0470 15.21223472122623
